OBJECT_NAME,OBJECT_ID,EPOCH,MEAN_MOTION,ECCENTRICITY,INCLINATION,RA_OF_ASC_NODE,ARG_OF_PERICENTER,MEAN_ANOMALY,EPHEMERIS_TYPE,CLASSIFICATION_TYPE,NORAD_CAT_ID,ELEMENT_SET_NO,REV_AT_EPOCH,BSTAR,MEAN_MOTION_DOT,MEAN_MOTION_DDOT
KUIPER-00522,2026-140L,2026-07-16T13:06:00.641664,15.38614832,.0013125,51.8765,256.4972,273.5705,86.3781,0,U,69602,999,575,.37748E-3,.14289E-3,0
KUIPER-00528,2026-140M,2026-07-16T13:50:59.851968,15.37521210,.0005937,51.8776,256.6977,4.3015,355.8022,0,U,69603,999,575,.41531E-3,.15171E-3,0
KUIPER-00532,2026-140N,2026-07-16T12:34:48.535968,15.36574850,.0005556,51.8770,257.0887,40.2695,319.8702,0,U,69604,999,574,.22263E-3,.7694E-4,0
KUIPER-00533,2026-140P,2026-07-16T13:27:12.264768,15.38301447,.000829,51.8773,256.5912,330.0461,30.0050,0,U,69605,999,575,.44617E-3,.16766E-3,0
KUIPER-00534,2026-140Q,2026-07-16T11:24:55.656288,15.38742614,.0013359,51.8806,256.7852,273.3129,86.6330,0,U,69606,999,574,.2091E-3,.7762E-4,0
KUIPER-00537,2026-140R,2026-07-16T10:05:00.722400,15.34125323,.0010671,51.8787,257.8914,51.7897,308.4048,0,U,69607,999,572,-.30727E-3,-.10689E-3,0
KUIPER-00538,2026-140S,2026-07-16T13:43:15.267936,15.37754753,.0006865,51.8802,256.6705,346.1834,13.8964,0,U,69608,999,575,.36002E-3,.13199E-3,0
KUIPER-00540,2026-140T,2026-07-16T12:27:47.153664,15.36985728,.0006665,51.8800,257.0682,27.2165,332.9170,0,U,69609,999,574,.36471E-3,.1304E-3,0
KUIPER-00541,2026-140U,2026-07-16T10:19:25.143168,15.38440582,.0007864,51.8805,257.2285,330.1587,29.8951,0,U,69610,999,573,.33827E-3,.12665E-3,0
KUIPER-00542,2026-140V,2026-07-16T13:24:56.169216,15.38313003,.0007895,51.8777,256.5811,311.2983,48.7323,0,U,69611,999,575,.34107E-3,.12719E-3,0
KUIPER-00543,2026-140W,2026-07-16T11:00:53.190144,15.36847698,.0008025,51.8773,257.3997,39.6029,320.5542,0,U,69612,999,573,.19447E-3,.6734E-4,0
KUIPER-00544,2026-140X,2026-07-16T10:24:24.778368,15.38205711,.0006941,51.8777,257.2376,323.8770,36.1747,0,U,69613,999,573,.41195E-3,.15393E-3,0
KUIPER-00546,2026-140Y,2026-07-16T11:27:04.699008,15.38049034,.0013993,51.8772,256.7878,271.9527,87.9857,0,U,69614,999,574,.60132E-3,.2261E-3,0
KUIPER-00547,2026-140Z,2026-07-16T13:23:26.973312,15.37951847,.001112,51.8815,256.5843,295.2840,64.6995,0,U,69615,999,575,.34904E-3,.12882E-3,0
KUIPER-00549,2026-140AA,2026-07-16T13:53:38.389056,15.37359191,.0007925,51.8779,256.7102,19.5782,340.5507,0,U,69616,999,575,.36576E-3,.13244E-3,0
KUIPER-00550,2026-140AB,2026-07-16T16:45:15.186816,15.31913173,.0007925,51.8796,256.7438,67.2224,292.9597,0,U,69617,999,576,-.1092E-2,-.34394E-3,0
KUIPER-00551,2026-140AC,2026-07-16T13:12:05.620320,15.38269864,.001251,51.8779,256.5241,285.0023,74.9579,0,U,69618,999,575,.42958E-3,.16131E-3,0
KUIPER-00554,2026-140AD,2026-07-16T11:47:08.912832,15.38008374,.0011182,51.8783,256.8766,296.5765,63.4076,0,U,69619,999,574,.37171E-3,.13773E-3,0
KUIPER-00555,2026-140AE,2026-07-16T20:00:01.999008,15.38006712,.0011391,51.8807,255.1998,286.3888,184.6521,0,U,69620,999,526,-.51456E-3,-.19937E-3,0
KUIPER-00556,2026-140AF,2026-07-16T13:14:43.243296,15.38356550,.001221,51.8795,256.5407,272.8271,87.1319,0,U,69621,999,575,.35383E-3,.13247E-3,0
KUIPER-00557,2026-140AG,2026-07-16T13:29:45.574656,15.37560263,.0010216,51.8804,256.6107,305.3630,54.6401,0,U,69622,999,575,.45503E-3,.16702E-3,0
KUIPER-00560,2026-140AH,2026-07-16T20:00:01.999008,15.37028629,.0009329,51.8777,255.1927,318.5550,151.3363,0,U,69623,999,537,-.65776E-3,-.24554E-3,0
KUIPER-00561,2026-140AJ,2026-07-16T10:10:25.469760,15.38751926,.0007665,51.8812,257.1893,305.7051,54.3223,0,U,69624,999,573,.33889E-3,.12821E-3,0
KUIPER-00564,2026-140AK,2026-07-16T13:25:50.699712,15.37234034,.0009288,51.8794,256.5928,306.5552,53.4579,0,U,69625,999,575,.33012E-3,.11868E-3,0
KUIPER-00567,2026-140AL,2026-07-16T20:00:01.999008,15.38335632,.0012919,51.8761,255.1412,276.1598,218.0288,0,U,69626,999,577,-.68773E-3,-.2679E-3,0
KUIPER-00573,2026-140AM,2026-07-16T13:35:19.004352,15.37506039,.0009382,51.8777,256.6274,291.6206,68.3781,0,U,69627,999,575,.29924E-3,.10817E-3,0
KZ-11 R/B,2026-138H,2026-07-12T21:48:00.762624,15.43010363,.03770511,55.1520,167.7492,143.6026,219.1292,0,U,69628,999,389,.75497354E-3,.78015E-2,.9750105E-5
CENTISPACE-1 GROUP 05 OBJECT J,2026-138J,2026-07-13T09:42:48.125952,14.15842380,.00095471,55.1383,184.3032,341.3483,18.7141,0,U,69636,999,370,-.51944164E-4,-.256E-5,0
VICTUS HAZE PUMA,2026-142A,2026-07-16T07:09:16.524288,15.20227445,.0022441,97.4461,94.5882,264.2185,95.6491,0,U,69646,999,409,.84764E-4,.1778E-4,0
HOKUSHIN-1,1998-067YH,2026-07-16T13:57:25.348032,15.51054092,.0006217,51.6315,154.3536,335.9165,24.1533,0,U,69648,999,421,.29228719E-3,.16901E-3,0
